STARLINK-30399
1 57951U 23148S   25355.38658993 -.00000185  00000+0  58612-5 0  9997
2 57951  53.1610  27.9831 0001010  81.3451 278.7664 15.30193252126436